1 41179U 15081A   19282.13345089 -.00000009  00000-0  36215-4 0  9993
2 41179  47.0044 341.7564 0003447 218.3441 141.7198 14.54767898201771
1 41179U 15081A   19282.61420865 -.00000005 +00000-0 +37084-4 0  9993
2 41179 047.0043 339.4983 0003467 220.2481 139.8147 14.54768057201845
1 41179U 15081A   19283.16364596 -.00000004  00000-0  37356-4 0  9993
2 41179  47.0043 336.9175 0003498 222.6010 137.4603 14.54768215201924
1 41179U 15081A   19283.57572399 -.00000003 +00000-0 +37573-4 0  9990
2 41179 047.0042 334.9821 0003507 224.2120 135.8485 14.54768339201983
